[{"OBJECT_NAME":"STARLINK-36504","OBJECT_ID":"2026-008T","EPOCH":"2026-03-09T10:24:56.797344","MEAN_MOTION":15.27598745,"ECCENTRICITY":0.00029014,"INCLINATION":43.0004,"RA_OF_ASC_NODE":206.6155,"ARG_OF_PERICENTER":297.7687,"MEAN_ANOMALY":62.287,"EPHEMERIS_TYPE":0,"CLASSIFICATION_TYPE":"U","NORAD_CAT_ID":67462,"ELEMENT_SET_NO":999,"REV_AT_EPOCH":953,"BSTAR":0.001170081,"MEAN_MOTION_DOT":0.00032097,"MEAN_MOTION_DDOT":0},{"OBJECT_NAME":"CZ-6A DEB","OBJECT_ID":"2022-151CC","EPOCH":"2026-03-09T19:21:24.185952","MEAN_MOTION":15.21292269,"ECCENTRICITY":0.00294338,"INCLINATION":98.6347,"RA_OF_ASC_NODE":160.1892,"ARG_OF_PERICENTER":145.6687,"MEAN_ANOMALY":214.6455,"EPHEMERIS_TYPE":0,"CLASSIFICATION_TYPE":"U","NORAD_CAT_ID":54333,"ELEMENT_SET_NO":999,"REV_AT_EPOCH":17712,"BSTAR":0.0073643753,"MEAN_MOTION_DOT":0.00170206,"MEAN_MOTION_DDOT":0}]
